ONEWEB-0446             
1 51640U 22012U   24133.61042571  .00000339  00000+0  93534-3 0  9993
2 51640  87.8979 188.4536 0002403  92.0224 268.1178 13.10370531109062
ONEWEB-0448             
1 51641U 22012V   24133.84446988  .00000423  00000+0  11767-2 0  9990
2 51641  87.8969 188.4083 0002014 103.6894 256.4458 13.10371681110351
ONEWEB-0449             
1 51642U 22012W   24133.54401495  .00000139  00000+0  36179-3 0  9991
2 51642  87.8965 188.4649 0001835  94.0327 266.1010 13.10369407109038
ONEWEB-0451             
1 51643U 22012X   24133.54392806  .00000046  00000+0  86381-4 0  9995
2 51643  87.9171 158.2398 0001932  96.4447 263.6905 13.17649182112837
ONEWEB-0452             
1 51644U 22012Y   24133.54233642  .00000028  00000+0  39601-4 0  9991
2 51644  87.9178 158.2780 0001679  92.1846 267.9477 13.17649110112847
ONEWEB-0456             
1 51646U 22012AA  24133.55396464 -.00000366  00000+0 -10842-2 0  9997
2 51646  87.8960 188.4361 0002464 101.6248 258.5156 13.10369614109074
ONEWEB-0457             
1 51647U 22012AB  24133.60710062  .00000682  00000+0  19187-2 0  9998
2 51647  87.8973 188.4445 0001881  88.1768 271.9575 13.10371390109089
ONEWEB-0458             
1 51648U 22012AC  24133.55230500 -.00000285  00000+0 -85357-3 0  9991
2 51648  87.8972 188.4708 0001939 102.0691 258.0653 13.10369920109030
